[{"OBJECT_NAME":"STARLINK-30476","OBJECT_ID":"2023-147T","EPOCH":"2026-03-09T21:58:09.534432","MEAN_MOTION":15.36840948,"ECCENTRICITY":0.00192261,"INCLINATION":42.9949,"RA_OF_ASC_NODE":270.5227,"ARG_OF_PERICENTER":243.5984,"MEAN_ANOMALY":116.2898,"EPHEMERIS_TYPE":0,"CLASSIFICATION_TYPE":"U","NORAD_CAT_ID":57930,"ELEMENT_SET_NO":999,"REV_AT_EPOCH":13725,"BSTAR":0.0025736749,"MEAN_MOTION_DOT":0.00096215,"MEAN_MOTION_DDOT":0},{"OBJECT_NAME":"OV3-3","OBJECT_ID":"1966-070A","EPOCH":"2026-03-09T22:03:14.294880","MEAN_MOTION":13.42594145,"ECCENTRICITY":0.10245609,"INCLINATION":81.3241,"RA_OF_ASC_NODE":58.4456,"ARG_OF_PERICENTER":54.9014,"MEAN_ANOMALY":314.389,"EPHEMERIS_TYPE":0,"CLASSIFICATION_TYPE":"U","NORAD_CAT_ID":2389,"ELEMENT_SET_NO":999,"REV_AT_EPOCH":58563,"BSTAR":0.00080880724,"MEAN_MOTION_DOT":0.00018028,"MEAN_MOTION_DDOT":0}]
